satname,norad_id,inclination_deg,eccentricity,mean_motion_rev_per_day,perigee_km,apogee_km,l1,l2
STARLINK-1008,44714,53.0539,0.000157,15.06394485,546.1411782932137,548.3157430478641,1 44714U 19074B   25323.70178036 -.00000566  00000+0 -19107-4 0  9998,2 44714  53.0539 320.3707 0001570  81.8842 278.2325 15.06394485332173
STARLINK-1011,44717,53.0432,0.0003657,15.99027394,274.68220654431843,279.5498586123458,1 44717U 19074E   25323.91668980  .00499392  11792-3  10108-2 0  9997,2 44717  53.0432 289.9624 0003657  66.5700  34.9095 15.99027394  5955
STARLINK-1012,44718,53.0555,0.0001507,15.06394708,546.1841247316479,548.2714296754975,1 44718U 19074F   25323.28158083 -.00001728  00000+0 -97122-4 0  9999,2 44718  53.0555 322.2587 0001507  85.5054 274.6107 15.06394708332107
STARLINK-1017,44723,53.052,0.0003966,15.16355199,514.1327975774484,519.6019150328693,1 44723U 19074L   25323.27323882  .00043646  00000+0  22249-2 0  9994,2 44723  53.0520 317.6732 0003966  12.6108 347.4984 15.16355199332178
STARLINK-1019,44724,53.0544,9.96e-05,15.51600438,411.3764723582626,412.7290781614938,1 44724U 19074M   25323.91668980  .00365393  00000+0  57863-2 0  9993,2 44724  53.0544 315.6473 0000996 100.6589 252.8048 15.51600438  5799
STARLINK-1020,44725,53.0563,0.000197,15.0640404,545.8348847211555,548.5634671744783,1 44725U 19074N   25323.74786041  .00000850  00000+0  75978-4 0  9997,2 44725  53.0563 340.1689 0001970  96.3310 263.7904 15.06404040331895
STARLINK-1031,44736,53.0495,0.0006618,15.51873024,406.76440084578735,415.75084356774005,1 44736U 19074Z   25323.91668980  .00178682  00000+0  28724-2 0  9993,2 44736  53.0495 302.7537 0006618   3.3213 184.8932 15.51873024  5907
STARLINK-1036,44741,53.0549,0.0001393,15.0639788,546.2533534813401,548.1827573997853,1 44741U 19074AE  25323.77734255  .00001229  00000+0  10138-3 0  9995,2 44741  53.0549 340.0330 0001393  87.7285 272.3864 15.06397880331909
STARLINK-1039,44744,53.0502,0.000138,15.14249257,522.3063005505892,524.2110857619,1 44744U 19074AH  25323.81779880  .00031542  00000+0  17141-2 0  9997,2 44744  53.0502 356.8373 0001380 254.4036 105.6805 15.14249257331676
STARLINK-1042,44747,53.0473,0.000357,15.44193788,431.3161541876907,436.17984007564246,1 44747U 19074AL  25323.82069138  .00019156  00000+0  41897-3 0  9992,2 44747  53.0473 259.6218 0003570 129.1252 231.0071 15.44193788333069
STARLINK-1043,44748,53.0555,0.0001348,15.21493005,500.4091345745992,502.263840626857,1 44748U 19074AM  25323.91668980  .02161052  00000+0  86215-1 0  9999,2 44748  53.0555 359.0063 0001348  79.6111 313.8678 15.21493005  5796
STARLINK-1046,44751,53.0554,0.000125,15.0639577,546.3588521190941,548.0901924996715,1 44751U 19074AQ  25323.43270148 -.00000288  00000+0 -42743-6 0  9991,2 44751  53.0554   1.5776 0001250  99.1511 260.9620 15.06395770331572
STARLINK-1047,44752,53.0711,0.0001265,15.2980094,475.5397498581342,477.27394945209653,1 44752U 19074AR  25323.64363197  .00009479  00000+0  33581-3 0  9998,2 44752  53.0711 298.9986 0001265 211.0544 149.0380 15.29800940332486
STARLINK-1048,44753,53.0552,0.0001482,15.06397128,546.1940222578332,548.2466981794023,1 44753U 19074AS  25323.72389391 -.00001247  00000+0 -64842-4 0  9994,2 44753  53.0552 320.2717 0001482  93.3856 266.7303 15.06397128332171
STARLINK-1053,44758,53.0389,0.000491,15.63451798,374.3779261790878,381.0121532420835,1 44758U 19074AX  25323.16312245  .00092432  00000+0  97639-3 0  9994,2 44758  53.0389 273.7103 0004910  89.9142 270.2434 15.63451798332793
STARLINK-1054,44759,53.0242,0.0001068,16.33681327,181.96450757562525,183.36589492581152,1 44759U 19074AY  25323.89476944  .05288070  12171-4  78631-3 0  9990,2 44759  53.0242 287.7036 0001068 166.9646 193.1426 16.33681327330296
STARLINK-1060,44765,53.0513,0.0006984,15.6791168,360.16845036913855,369.5870934025097,1 44765U 19074BE  25323.91668980  .00241803  00000+0  20899-2 0  9996,2 44765  53.0513 315.7271 0006984  49.1889 326.3237 15.67911680  5956
STARLINK-1063,44768,53.0551,0.0001416,15.06394862,546.2466736274109,548.2079367986471,1 44768U 19074BH  25323.81973036 -.00000666  00000+0 -25834-4 0  9997,2 44768  53.0551 359.8450 0001416  99.3593 260.7556 15.06394862331646
STARLINK-1067,44771,53.0549,0.0001354,15.06397642,546.2810917048182,548.1564780513627,1 44771U 19074BL  25323.80866977  .00001525  00000+0  12126-3 0  9997,2 44771  53.0549 359.8942 0001354  92.6186 267.4958 15.06397642331636
STARLINK-1068,44772,53.0546,0.000131,15.06393706,546.3236250208247,548.1380713970566,1 44772U 19074BM  25323.26867949  .00000116  00000+0  26677-4 0  9990,2 44772  53.0546 342.3180 0001310  91.1285 268.9854 15.06393706331820
STARLINK-1112,44925,53.048,0.0002495,15.5781204,392.3010290238781,395.6803207336434,1 44925U 20001M   25323.91668980  .00116304  00000+0  15192-2 0  9993,2 44925  53.0480  70.3381 0002495 270.1295  50.8683 15.57812040  5934
STARLINK-1114,44927,53.0533,0.000108,15.06402145,546.4570468957609,547.9529207642681,1 44927U 20001P   25323.17468430  .00001406  00000+0  11324-3 0  9991,2 44927  53.0533 122.7406 0001080  84.6893 275.4219 15.06402145323192
STARLINK-1123,44930,53.0513,0.0001399,15.06384925,546.2888983003186,548.2266237544545,1 44930U 20001S   25323.72020890  .00000782  00000+0  71431-4 0  9992,2 44930  53.0513 120.2915 0001399  90.1513 269.9636 15.06384925323271
STARLINK-1144,44933,53.0433,0.000428,15.6609492,367.2033784203777,372.9798621193286,1 44933U 20001V   25323.91668980  .00142810  00000+0  13475-2 0  9995,2 44933  53.0433  46.3257 0004280 152.4516 319.6137 15.66094920  5948
STARLINK-1094,44941,53.0518,0.0001177,15.06398368,546.4014456737559,548.0316739017308,1 44941U 20001AD  25323.79945154 -.00000340  00000+0 -39211-5 0  9993,2 44941  53.0518  99.9347 0001177  85.6188 274.4935 15.06398368323561
STARLINK-1096,44942,52.9785,0.0005117,16.0949881,244.8278381005257,251.60925036449316,1 44942U 20001AE  25323.57700662  .00773389  33506-3  82869-3 0  9997,2 44942  52.9785 206.8198 0005117 164.6384 195.4805 16.09498810327067
STARLINK-1122,44949,53.0538,0.0001389,15.06395132,546.2645447102823,548.1884106843881,1 44949U 20001AM  25323.75522212 -.00001588  00000+0 -87765-4 0  9994,2 44949  53.0538 100.1288 0001389  85.5564 274.5584 15.06395132323558
STARLINK-1080,44961,53.0546,0.0001129,15.06400304,546.4287544752187,547.9924979692187,1 44961U 20001AZ  25323.62068517 -.00001076  00000+0 -53339-4 0  9999,2 44961  53.0546  80.7354 0001129  85.1582 274.9536 15.06400304323825
STARLINK-1090,44968,53.0537,0.0001225,15.06392511,546.3861527296885,548.0828687498197,1 44968U 20001BG  25323.75705176 -.00007392  00000+0 -47797-3 0  9996,2 44968  53.0537  80.1243 0001225  85.7052 274.4077 15.06392511323845
STARLINK-1107,44972,53.0055,0.0008147,15.79305904,326.9389996401278,337.8731585331916,1 44972U 20001BL  25323.91668980  .00346112  00000+0  18098-2 0  9995,2 44972  53.0055 344.4961 0008147  33.8382 271.1800 15.79305904  5810
STARLINK-1132,45044,53.0557,0.0001235,15.06388619,546.3911544289722,548.1017241384752,1 45044U 20006A   25323.45113213 -.00003487  00000+0 -21542-3 0  9990,2 45044  53.0557  41.5009 0001235  71.5844 288.5280 15.06388619320121
STARLINK-1131,45047,53.0554,0.0001235,15.06393394,546.3765214034775,548.0870874981765,1 45047U 20006D   25323.55993567 -.00000246  00000+0  23702-5 0  9993,2 45047  53.0554  61.5497 0001235  81.5280 278.5849 15.06393394319853
STARLINK-1134,45048,53.0372,0.0006827,15.29777436,471.7974147565328,481.15670479374967,1 45048U 20006E   25323.44249038  .00027529  00000+0  94985-3 0  9990,2 45048  53.0372  36.8762 0006827 219.4292 140.6211 15.29777436320198
STARLINK-1156,45054,53.054,0.0001333,15.06389752,546.3198136107876,548.1661199099244,1 45054U 20006L   25323.53037476 -.00002391  00000+0 -14170-3 0  9998,2 45054  53.0540  61.1428 0001333  82.5425 277.5716 15.06389752319852
STARLINK-1159,45057,53.0549,0.0001999,15.52385631,408.4060396599971,411.11984205635235,1 45057U 20006P   25323.61480432  .00105213  00000+0  16802-2 0  9992,2 45057  53.0549  55.1671 0001999  11.2004 348.9050 15.52385631319955
STARLINK-1166,45060,53.0552,0.0001414,15.0639305,546.2536114711593,548.2121060672189,1 45060U 20006S   25323.48983383  .00000949  00000+0  82632-4 0  9990,2 45060  53.0552  61.3241 0001414 104.9852 255.1293 15.06393050319858
STARLINK-1169,45061,53.0557,0.0001254,15.06396505,546.3538295782027,548.090709683026,1 45061U 20006T   25323.56355237  .00000242  00000+0  35106-4 0  9991,2 45061  53.0557  60.9941 0001254  82.5662 277.5470 15.06396505319862
STARLINK-1171,45062,53.0544,0.0006882,15.35948789,453.3990806094489,462.8084824211255,1 45062U 20006U   25323.63784485  .00044198  00000+0  12476-2 0  9992,2 45062  53.0544  54.5874 0006882 350.7847   9.3028 15.35948789319960
STARLINK-1133,45064,53.056,0.0001268,15.06423313,546.2619827351518,548.0182330097095,1 45064U 20006W   25323.62803702  .00005634  00000+0  39657-3 0  9990,2 45064  53.0560  40.7014 0001268  99.6410 260.4723 15.06423313320155
STARLINK-1167,45071,53.0546,0.0001245,15.06402399,546.3420003784877,548.0664103386225,1 45071U 20006AD  25323.52116679  .00000243  00000+0  35195-4 0  9992,2 45071  53.0546  41.1834 0001245  87.9891 272.1240 15.06402399320133
STARLINK-1168,45072,53.0552,0.0001118,15.06388874,546.4713999545838,548.0199155168539,1 45072U 20006AE  25323.52484879 -.00000988  00000+0 -47449-4 0  9996,2 45072  53.0552  41.1679 0001118  91.3008 268.8109 15.06388874320133
STARLINK-1172,45074,53.0549,0.0001206,15.06387285,546.4153261202327,548.0857295919513,1 45074U 20006AG  25323.46956704  .00000917  00000+0  80487-4 0  9991,2 45074  53.0549  41.4168 0001206 101.1751 258.9374 15.06387285320128
STARLINK-1153,45080,53.055,0.0001565,15.06393638,546.1472365197451,548.3148767214661,1 45080U 20006AN  25323.64648786  .00000456  00000+0  49524-4 0  9991,2 45080  53.0550  40.6202 0001565  41.0056 319.1051 15.06393638320159
